1 28129U 03058A   21001.56928260 -.00000006  00000-0  00000-0 0  9997
2 28129  53.4658 103.6074 0070304 298.4554  60.8478  2.00566954124824
1 28129U 03058A   21002.56642341 -.00000002  00000-0  00000-0 0  9997
2 28129  53.4665 103.5657 0070336 298.4780  60.8294  2.00567027124844
1 28129U 03058A   21003.06499286 -.00000002  00000-0  00000-0 0  9991
2 28129  53.4667 103.5449 0070369 298.4886  60.8201  2.00567094124851
1 28129U 03058A   21005.55782756 -.00000014  00000-0  00000-0 0  9997
2 28129  53.4682 103.4407 0070434 298.5412  60.7671  2.00567260124901
1 28129U 03058A   21006.55495632 -.00000025  00000-0  00000-0 0  9994
2 28129  53.4689 103.3990 0070458 298.5622  60.7431  2.00567353124922
1 28129U 03058A   21008.05064752 -.00000042  00000-0  00000-0 0  9995
2 28129  53.4699 103.3364 0070521 298.5930  60.7071  2.00567548124950
1 28129U 03058A   21009.54634213 -.00000054  00000-0  00000-0 0  9998
2 28129  53.4709 103.2739 0070561 298.6256  60.6721  2.00567654124985
1 28129U 03058A   21010.54347467 -.00000057  00000-0  00000-0 0  9995
2 28129  53.4715 103.2322 0070598 298.6493  60.6493  2.00567762125003
1 28129U 03058A   21011.04204141 -.00000057  00000-0  00000-0 0  9992
2 28129  53.4719 103.2113 0070624 298.6636  60.6363  2.00567878125019
1 28129U 03058A   21012.03917725 -.00000054  00000-0  00000-0 0  9998
2 28129  53.4726 103.1696 0070650 298.6894  60.6145  2.00567996125038
1 28129U 03058A   21013.53488280 -.00000046  00000-0  00000-0 0  9994
2 28129  53.4736 103.1071 0070681 298.7273  60.5845  2.00568120125061
1 28129U 03058A   21014.53201915 -.00000041  00000-0  00000-0 0  9998
2 28129  53.4742 103.0654 0070715 298.7532  60.5636  2.00568236125088
1 28129U 03058A   21015.52915356 -.00000037  00000-0  00000-0 0  9994
2 28129  53.4752 103.0237 0070737 298.7805  60.5406  2.00568360125109
1 28129U 03058A   21016.52628568 -.00000036  00000-0  00000-0 0  9990
2 28129  53.4764 102.9821 0070759 298.8107  60.5134  2.00568484125126
1 28129U 03058A   21017.52341545 -.00000039  00000-0  00000-0 0  9991
2 28129  53.4759 102.9403 0070809 298.8328  60.4926  2.00568591125146
1 28129U 03058A   21019.51766843 -.00000048  00000-0  00000-0 0  9994
2 28129  53.4773 102.8569 0070882 298.8930  60.4321  2.00568820125182
1 28129U 03058A   21020.51479328 -.00000053  00000-0  00000-0 0  9991
2 28129  53.4779 102.8152 0070915 298.9253  60.3989  2.00568925125200
1 28129U 03058A   21021.51191810 -.00000055  00000-0  00000-0 0  9991
2 28129  53.4785 102.7736 0070951 298.9575  60.3660  2.00569021125227
1 28129U 03058A   21022.50904345 -.00000055  00000-0  00000-0 0  9996
2 28129  53.4793 102.7319 0070975 298.9917  60.3320  2.00569113125246
1 28129U 03058A   21023.50616968 -.00000052  00000-0  00000-0 0  9995
2 28129  53.4799 102.6902 0070999 299.0236  60.3012  2.00569203125261
1 28129U 03058A   21024.50329728 -.00000046  00000-0  00000-0 0  9994
2 28129  53.4805 102.6485 0071029 299.0533  60.2738  2.00569288125289
1 28129U 03058A   21025.50042577 -.00000038  00000-0  00000+0 0  9999
2 28129  53.4814 102.6069 0071054 299.0830  60.2479  2.00569378125300
1 28129U 03058A   21025.50042577 -.00000038  00000-0  00000-0 0  9990
2 28129  53.4814 102.6069 0071054 299.0830  60.2479  2.00569378125300
1 28129U 03058A   21026.49755550 -.00000029  00000-0  00000-0 0  9991
2 28129  53.4820 102.5652 0071086 299.1113  60.2243  2.00569458125324
1 28129U 03058A   21027.49468585 -.00000021  00000-0  00000-0 0  9993
2 28129  53.4827 102.5235 0071120 299.1400  60.2009  2.00569530125349
1 28129U 03058A   21027.99325080 -.00000016  00000-0  00000-0 0  9994
2 28129  53.4832 102.5027 0071153 299.1579  60.1856  2.00569602125357
1 28129U 03058A   21028.99038040 -.00000010  00000-0  00000-0 0  9996
2 28129  53.4837 102.4610 0071192 299.1865  60.1620  2.00569661125376
1 28129U 03058A   21030.48607011 -.00000004  00000-0  00000-0 0  9996
2 28129  53.4846 102.3984 0071222 299.2258  60.1279  2.00569740125402
1 28129U 03058A   21031.48319264 -.00000006  00000-0  00000-0 0  9999
2 28129  53.4853 102.3567 0071255 299.2572  60.0975  2.00569819125423
1 28129U 03058A   21032.48031191 -.00000010  00000-0  00000-0 0  9995
2 28129  53.4861 102.3150 0071278 299.2828  60.0707  2.00569890125443
1 28129U 03058A   21032.97887013 -.00000014  00000-0  00000-0 0  9995
2 28129  53.4864 102.2941 0071307 299.2983  60.0539  2.00569967125457
1 28129U 03058A   21034.47454281 -.00000028  00000-0  00000-0 0  9994
2 28129  53.4874 102.2315 0071337 299.3356  60.0113  2.00570055125482
1 28129U 03058A   21035.47165719 -.00000038  00000-0  00000-0 0  9991
2 28129  53.4882 102.1898 0071369 299.3636  59.9796  2.00570148125502
1 28129U 03058A   21036.46877287 -.00000045  00000-0  00000-0 0  9999
2 28129  53.4887 102.1481 0071405 299.3901  59.9508  2.00570245125522
1 28129U 03058A   21037.46589080 -.00000048  00000-0  00000-0 0  9994
2 28129  53.4894 102.1064 0071436 299.4188  59.9217  2.00570343125547
1 28129U 03058A   21037.96445042 -.00000049  00000-0  00000-0 0  9999
2 28129  53.4899 102.0855 0071466 299.4389  59.9021  2.00570451125559
1 28129U 03058A   21039.46013348 -.00000044  00000-0  00000-0 0  9991
2 28129  53.4911 102.0230 0071496 299.4873  59.8583  2.00570568125586
1 28129U 03058A   21040.45725671 -.00000037  00000-0  00000-0 0  9993
2 28129  53.4918 101.9813 0071524 299.5202  59.8298  2.00570680125608
1 28129U 03058A   21040.45725678 -.00000037  00000-0  00000-0 0  9990
2 28129  53.4918 101.9813 0071522 299.5153  59.8347  2.00570669125603
1 28129U 03058A   21041.45437956 -.00000031  00000-0  00000-0 0  9994
2 28129  53.4925 101.9396 0071548 299.5482  59.8062  2.00570783125623
1 28129U 03058A   21042.45150099 -.00000025  00000-0  00000-0 0  9998
2 28129  53.4932 101.8980 0071573 299.5809  59.7773  2.00570893125642
1 28129U 03058A   21043.44862012 -.00000023  00000-0  00000-0 0  9991
2 28129  53.4939 101.8563 0071601 299.6138  59.7467  2.00571004125661
1 28129U 03058A   21044.44573656 -.00000024  00000-0  00000-0 0  9996
2 28129  53.4946 101.8146 0071630 299.6471  59.7143  2.00571119125688
1 28129U 03058A   21045.44285069 -.00000026  00000-0  00000-0 0  9997
2 28129  53.4953 101.7729 0071659 299.6828  59.6782  2.00571230125704
1 28129U 03058A   21046.43996291 -.00000031  00000-0  00000-0 0  9999
2 28129  53.4960 101.7313 0071690 299.7186  59.6409  2.00571338125721
1 28129U 03058A   21047.43707395 -.00000035  00000-0  00000-0 0  9999
2 28129  53.4967 101.6896 0071721 299.7569  59.6007  2.00571443125746
1 28129U 03058A   21047.93562974 -.00000036  00000-0  00000-0 0  9997
2 28129  53.4970 101.6687 0071750 299.7835  59.5730  2.00571529125754
1 28129U 03058A   21049.43129587 -.00000037  00000-0  00000-0 0  9994
2 28129  53.4980 101.6062 0071777 299.8346  59.5197  2.00571630125782
